{"type": "FeatureCollection", "features": [ {"type": "Feature", "properties": {"norad_id": 66593, "name": "STARLINK-36031", "group": "last-30-days", "lat": 36.96210788103953, "lon": -65.96973728087227, "alt_km": 340.20357812428756, "timestamp": "2025-12-04T17:48:38.964391+00:00", "meta": {"OBJECT_NAME": "STARLINK-36031", "OBJECT_ID": "2025-270F", "EPOCH": "2025-12-04T03:51:10.174752", "MEAN_MOTION": 15.75313834, "ECCENTRICITY": 0.00020553, "INCLINATION": 42.9978, "RA_OF_ASC_NODE": 243.6952, "ARG_OF_PERICENTER": 267.9518, "MEAN_ANOMALY": 92.1116, "EPHEMERIS_TYPE": 0, "CLASSIFICATION_TYPE": "U", "NORAD_CAT_ID": 66593, "ELEMENT_SET_NO": 999, "REV_AT_EPOCH": 300, "BSTAR": -0.0022282579, "MEAN_MOTION_DOT": -0.00333622, "MEAN_MOTION_DDOT": 0}, "tle": {"line1": "1 66593U 25270F   25338.16053443 -.00333622  00000+0 -22283-2 0  9991", "line2": "2 66593  42.9978 243.6952 0002055 267.9518  92.1116 15.75313834  3004"}}, "geometry": {"type": "Point", "coordinates": [-65.96973728087227, 36.96210788103953]}}, {"type": "Feature", "properties": {"norad_id": 66594, "name": "STARLINK-36032", "group": "last-30-days", "lat": 42.71669266581298, "lon": -37.60746464510486, "alt_km": 338.90409725506925, "timestamp": "2025-12-04T17:48:38.964401+00:00", "meta": {"OBJECT_NAME": "STARLINK-36032", "OBJECT_ID": "2025-270G", "EPOCH": "2025-12-04T03:46:47.463456", "MEAN_MOTION": 15.77380004, "ECCENTRICITY": 0.00146576, "INCLINATION": 42.9975, "RA_OF_ASC_NODE": 243.6707, "ARG_OF_PERICENTER": 280.4782, "MEAN_ANOMALY": 79.4436, "EPHEMERIS_TYPE": 0, "CLASSIFICATION_TYPE": "U", "NORAD_CAT_ID": 66594, "ELEMENT_SET_NO": 999, "REV_AT_EPOCH": 281, "BSTAR": 0.0022053405, "MEAN_MOTION_DOT": 0.00395318, "MEAN_MOTION_DDOT": 0}, "tle": {"line1": "1 66594U 25270G   25338.15749379  .00395318  00000+0  22053-2 0  9994", "line2": "2 66594  42.9975 243.6707 0014657 280.4782  79.4436 15.77380004  2810"}}, "geometry": {"type": "Point", "coordinates": [-37.60746464510486, 42.71669266581298]}}, {"type": "Feature", "properties": {"norad_id": 66595, "name": "STARLINK-35711", "group": "last-30-days", "lat": 38.49226773526801, "lon": -61.25808693444641, "alt_km": 339.09429022264703, "timestamp": "2025-12-04T17:48:38.964412+00:00", "meta": {"OBJECT_NAME": "STARLINK-35711", "OBJECT_ID": "2025-270H", "EPOCH": "2025-12-04T05:21:30.685248", "MEAN_MOTION": 15.75230098, "ECCENTRICITY": 0.00020324, "INCLINATION": 42.9987, "RA_OF_ASC_NODE": 243.3051, "ARG_OF_PERICENTER": 265.2073, "MEAN_ANOMALY": 94.8564, "EPHEMERIS_TYPE": 0, "CLASSIFICATION_TYPE": "U", "NORAD_CAT_ID": 66595, "ELEMENT_SET_NO": 999, "REV_AT_EPOCH": 312, "BSTAR": -2.0104523e-05, "MEAN_MOTION_DOT": -3.592e-05, "MEAN_MOTION_DDOT": 0}, "tle": {"line1": "1 66595U 25270H   25338.22327182 -.00003592  00000+0 -20105-4 0  9997", "line2": "2 66595  42.9987 243.3051 0002032 265.2073  94.8564 15.75230098  3124"}}, "geometry": {"type": "Point", "coordinates": [-61.25808693444641, 38.49226773526801]}}, {"type": "Feature", "properties": {"norad_id": 66596, "name": "STARLINK-35811", "group": "last-30-days", "lat": 39.15392924150392, "lon": -58.93990597960192, "alt_km": 339.2244687963239, "timestamp": "2025-12-04T17:48:38.964421+00:00", "meta": {"OBJECT_NAME": "STARLINK-35811", "OBJECT_ID": "2025-270J", "EPOCH": "2025-12-04T05:21:01.628928", "MEAN_MOTION": 15.75216339, "ECCENTRICITY": 0.00024176, "INCLINATION": 42.9986, "RA_OF_ASC_NODE": 243.3027, "ARG_OF_PERICENTER": 252.3696, "MEAN_ANOMALY": 107.6909, "EPHEMERIS_TYPE": 0, "CLASSIFICATION_TYPE": "U", "NORAD_CAT_ID": 66596, "ELEMENT_SET_NO": 999, "REV_AT_EPOCH": 312, "BSTAR": 0.00030397463, "MEAN_MOTION_DOT": 0.00046843, "MEAN_MOTION_DDOT": 0}, "tle": {"line1": "1 66596U 25270J   25338.22293552  .00046843  00000+0  30397-3 0  9998", "line2": "2 66596  42.9986 243.3027 0002417 252.3696 107.6909 15.75216339  3120"}}, "geometry": {"type": "Point", "coordinates": [-58.93990597960192, 39.15392924150392]}}, {"type": "Feature", "properties": {"norad_id": 66597, "name": "STARLINK-35820", "group": "last-30-days", "lat": 42.97226594315642, "lon": -30.99758676659423, "alt_km": 344.00977408735343, "timestamp": "2025-12-04T17:48:38.964431+00:00", "meta": {"OBJECT_NAME": "STARLINK-35820", "OBJECT_ID": "2025-270K", "EPOCH": "2025-12-04T00:43:40.956960", "MEAN_MOTION": 15.80114671, "ECCENTRICITY": 0.00202858, "INCLINATION": 42.9984, "RA_OF_ASC_NODE": 244.4384, "ARG_OF_PERICENTER": 309.2244, "MEAN_ANOMALY": 50.6826, "EPHEMERIS_TYPE": 0, "CLASSIFICATION_TYPE": "U", "NORAD_CAT_ID": 66597, "ELEMENT_SET_NO": 999, "REV_AT_EPOCH": 309, "BSTAR": -0.014154464, "MEAN_MOTION_DOT": -0.02411074, "MEAN_MOTION_DDOT": 0}, "tle": {"line1": "1 66597U 25270K   25338.03033515 -.02411074  00000+0 -14154-1 0  9996", "line2": "2 66597  42.9984 244.4384 0020285 309.2244  50.6826 15.80114671  3094"}}, "geometry": {"type": "Point", "coordinates": [-30.99758676659423, 42.97226594315642]}}, {"type": "Feature", "properties": {"norad_id": 66598, "name": "STARLINK-35981", "group": "last-30-days", "lat": 40.786889178317686, "lon": -52.05385069156188, "alt_km": 340.2235415275791, "timestamp": "2025-12-04T17:48:38.964441+00:00", "meta": {"OBJECT_NAME": "STARLINK-35981", "OBJECT_ID": "2025-270L", "EPOCH": "2025-12-04T05:19:33.192480", "MEAN_MOTION": 15.75308926, "ECCENTRICITY": 0.00028269, "INCLINATION": 42.999, "RA_OF_ASC_NODE": 243.2951, "ARG_OF_PERICENTER": 278.7151, "MEAN_ANOMALY": 81.3398, "EPHEMERIS_TYPE": 0, "CLASSIFICATION_TYPE": "U", "NORAD_CAT_ID": 66598, "ELEMENT_SET_NO": 999, "REV_AT_EPOCH": 285, "BSTAR": -0.0027988896, "MEAN_MOTION_DOT": -0.00414993, "MEAN_MOTION_DDOT": 0}, "tle": {"line1": "1 66598U 25270L   25338.22191195 -.00414993  00000+0 -27989-2 0  9999", "line2": "2 66598  42.9990 243.2951 0002826 278.7151  81.3398 15.75308926  2857"}}, "geometry": {"type": "Point", "coordinates": [-52.05385069156188, 40.786889178317686]}}, {"type": "Feature", "properties": {"norad_id": 66599, "name": "STARLINK-35930", "group": "last-30-days", "lat": 40.663445941580115, "lon": -52.654547009205274, "alt_km": 340.94930663215564, "timestamp": "2025-12-04T17:48:38.964457+00:00", "meta": {"OBJECT_NAME": "STARLINK-35930", "OBJECT_ID": "2025-270M", "EPOCH": "2025-12-04T00:45:37.693728", "MEAN_MOTION": 15.75348253, "ECCENTRICITY": 0.00019861, "INCLINATION": 42.9984, "RA_OF_ASC_NODE": 244.4479, "ARG_OF_PERICENTER": 267.8069, "MEAN_ANOMALY": 92.2573, "EPHEMERIS_TYPE": 0, "CLASSIFICATION_TYPE": "U", "NORAD_CAT_ID": 66599, "ELEMENT_SET_NO": 999, "REV_AT_EPOCH": 298, "BSTAR": -0.0039524111, "MEAN_MOTION_DOT": -0.00575796, "MEAN_MOTION_DDOT": 0}, "tle": {"line1": "1 66599U 25270M   25338.03168627 -.00575796  00000+0 -39524-2 0  9990", "line2": "2 66599  42.9984 244.4479 0001986 267.8069  92.2573 15.75348253  2989"}}, "geometry": {"type": "Point", "coordinates": [-52.654547009205274, 40.663445941580115]}}, {"type": "Feature", "properties": {"norad_id": 66600, "name": "STARLINK-35980", "group": "last-30-days", "lat": 42.97807992072004, "lon": -29.389213007484546, "alt_km": 331.5170196634617, "timestamp": "2025-12-04T17:48:38.964467+00:00", "meta": {"OBJECT_NAME": "STARLINK-35980", "OBJECT_ID": "2025-270N", "EPOCH": "2025-12-04T03:46:22.938816", "MEAN_MOTION": 15.79349544, "ECCENTRICITY": 0.00188251, "INCLINATION": 43.0002, "RA_OF_ASC_NODE": 243.6684, "ARG_OF_PERICENTER": 318.1688, "MEAN_ANOMALY": 41.7743, "EPHEMERIS_TYPE": 0, "CLASSIFICATION_TYPE": "U", "NORAD_CAT_ID": 66600, "ELEMENT_SET_NO": 999, "REV_AT_EPOCH": 290, "BSTAR": 0.0025460562, "MEAN_MOTION_DOT": 0.00507436, "MEAN_MOTION_DDOT": 0}, "tle": {"line1": "1 66600U 25270N   25338.15720994  .00507436  00000+0  25461-2 0  9996", "line2": "2 66600  43.0002 243.6684 0018825 318.1688  41.7743 15.79349544  2909"}}, "geometry": {"type": "Point", "coordinates": [-29.389213007484546, 42.97807992072004]}}, {"type": "Feature", "properties": {"norad_id": 66601, "name": "STARLINK-35978", "group": "last-30-days", "lat": 41.66464960825601, "lon": -47.120645426888515, "alt_km": 342.19780934063965, "timestamp": "2025-12-04T17:48:38.964477+00:00", "meta": {"OBJECT_NAME": "STARLINK-35978", "OBJECT_ID": "2025-270P", "EPOCH": "2025-12-04T02:15:56.284416", "MEAN_MOTION": 15.75298164, "ECCENTRICITY": 0.00071106, "INCLINATION": 42.9977, "RA_OF_ASC_NODE": 244.0577, "ARG_OF_PERICENTER": 214.9985, "MEAN_ANOMALY": 145.0417, "EPHEMERIS_TYPE": 0, "CLASSIFICATION_TYPE": "U", "NORAD_CAT_ID": 66601, "ELEMENT_SET_NO": 999, "REV_AT_EPOCH": 283, "BSTAR": -0.0021837609, "MEAN_MOTION_DOT": -0.00327668, "MEAN_MOTION_DDOT": 0}, "tle": {"line1": "1 66601U 25270P   25338.09440144 -.00327668  00000+0 -21838-2 0  9999", "line2": "2 66601  42.9977 244.0577 0007110 214.9985 145.0417 15.75298164  2838"}}, "geometry": {"type": "Point", "coordinates": [-47.120645426888515, 41.66464960825601]}}, {"type": "Feature", "properties": {"norad_id": 66602, "name": "STARLINK-36050", "group": "last-30-days", "lat": 36.409521378448055, "lon": 7.699857163063615, "alt_km": 286.11763501770747, "timestamp": "2025-12-04T17:48:38.964487+00:00", "meta": {"OBJECT_NAME": "STARLINK-36050", "OBJECT_ID": "2025-270Q", "EPOCH": "2025-12-03T23:11:57.245856", "MEAN_MOTION": 15.81066635, "ECCENTRICITY": 0.00264193, "INCLINATION": 42.9973, "RA_OF_ASC_NODE": 244.8203, "ARG_OF_PERICENTER": 271.6989, "MEAN_ANOMALY": 88.0856, "EPHEMERIS_TYPE": 0, "CLASSIFICATION_TYPE": "U", "NORAD_CAT_ID": 66602, "ELEMENT_SET_NO": 999, "REV_AT_EPOCH": 287, "BSTAR": 0.03628424, "MEAN_MOTION_DOT": 0.09497794, "MEAN_MOTION_DDOT": 0}, "tle": {"line1": "1 66602U 25270Q   25337.96663479  .09497794  00000+0  36284-1 0  9998", "line2": "2 66602  42.9973 244.8203 0026419 271.6989  88.0856 15.81066635  2876"}}, "geometry": {"type": "Point", "coordinates": [7.699857163063615, 36.409521378448055]}}]}